NORAD_CAT_ID,OBJECT_NAME,OBJECT_TYPE,EPOCH,MEAN_MOTION,ECCENTRICITY,INCLINATION,RA_OF_ASC_NODE,ARG_OF_PERICENTER,MEAN_ANOMALY,BSTAR,MEAN_MOTION_DOT,MEAN_MOTION_DDOT,TLE_LINE0,TLE_LINE1,TLE_LINE2,SEMIMAJOR_AXIS,PERIOD,APOGEE,PERIGEE,DECAYED
55632.0,STARLINK-5546,PAYLOAD,2023-03-27 22:00:00,15.45858037,0.0003472,70.0024,43.6597,267.213,110.5017,-0.028233,-0.01247897,0.0,0 STARLINK-5546,1 55632U 23021E   23086.91667824 -.01247897  00000-0 -28233-1 0  9990,2 55632  70.0024  43.6597 0003472 267.2130 110.5017 15.45858037  6510,6806.995,93.152,431.223,426.497,0.0
55632.0,STARLINK-5546,PAYLOAD,2023-03-28 14:00:01,15.44088472,0.0003369,70.002,41.8541,273.3646,211.1694,-0.028189,-0.01179084,0.0,0 STARLINK-5546,1 55632U 23021E   23087.58334491 -.01179084  00000-0 -28189-1 0  9997,2 55632  70.0020  41.8541 0003369 273.3646 211.1694 15.44088472  1308,6812.195,93.259,436.355,431.765,0.0
55632.0,STARLINK-5546,PAYLOAD,2023-03-28 22:00:00,15.43277092,0.0003307,70.0025,40.9535,268.1804,268.1873,-0.030644,-0.01240762,0.0,0 STARLINK-5546,1 55632U 23021E   23087.91667824 -.01240762  00000-0 -30644-1 0  9994,2 55632  70.0025  40.9535 0003307 268.1804 268.1873 15.43277092  1304,6814.582,93.308,438.701,434.194,0.0
55632.0,STARLINK-5546,PAYLOAD,2023-03-29 02:00:01,15.42818524,0.0003598,70.0023,40.5034,271.1781,110.7466,-0.030379,-0.01213854,0.0,0 STARLINK-5546,1 55632U 23021E   23088.08334491 -.01213854  00000-0 -30379-1 0  9991,2 55632  70.0023  40.5034 0003598 271.1781 110.7466 15.42818524  6699,6815.932,93.336,440.25,435.345,0.0
55632.0,STARLINK-5546,PAYLOAD,2023-03-29 14:00:01,15.41512128,0.0003392,70.0019,39.1547,268.4831,8.5209,-0.030737,-0.01178667,0.0,0 STARLINK-5546,1 55632U 23021E   23088.58334491 -.01178667  00000-0 -30737-1 0  9996,2 55632  70.0019  39.1547 0003392 268.4831   8.5209 15.41512128  1306,6819.783,93.415,443.961,439.335,0.0
55632.0,STARLINK-5546,PAYLOAD,2023-03-29 22:00:00,15.40699638,0.0003648,70.0023,38.2572,265.0969,60.6519,-0.033404,-0.01240571,0.0,0 STARLINK-5546,1 55632U 23021E   23088.91667824 -.01240571  00000-0 -33404-1 0  9990,2 55632  70.0023  38.2572 0003648 265.0969  60.6519 15.40699638  1302,6822.18,93.464,446.534,441.556,0.0
55632.0,STARLINK-5546,PAYLOAD,2023-03-30 08:00:01,15.39589175,0.0003478,70.002,37.1368,273.9248,201.3413,-0.0329,-0.01183125,0.0,0 STARLINK-5546,1 55632U 23021E   23089.33334491 -.01183125  00000-0 -32900-1 0  9999,2 55632  70.0020  37.1368 0003478 273.9248 201.3413 15.39589175  6886,6825.46,93.531,449.699,444.951,0.0
55632.0,STARLINK-5546,PAYLOAD,2023-03-30 22:00:00,15.38123005,0.0003456,70.0023,35.5715,266.4715,199.3899,-0.036506,-0.0124478,0.0,0 STARLINK-5546,1 55632U 23021E   23089.91667824 -.01244780  00000-0 -36506-1 0  9993,2 55632  70.0023  35.5715 0003456 266.4715 199.3899 15.38123005  6978,6829.797,93.621,454.022,449.302,0.0
55632.0,STARLINK-5546,PAYLOAD,2023-03-31 00:00:00,15.37894275,0.0003355,70.0023,35.3481,265.5116,301.6158,-0.036409,-0.01233339,0.0,0 STARLINK-5546,1 55632U 23021E   23090.00001157 -.01233339  00000-0 -36409-1 0  9996,2 55632  70.0023  35.3481 0003355 265.5116 301.6158 15.37894275  1300,6830.474,93.635,454.631,450.048,0.0
55632.0,STARLINK-5546,PAYLOAD,2023-03-31 18:00:00,15.35933953,0.0003506,70.002,33.3416,267.0352,128.5112,-0.036481,-0.01166076,0.0,0 STARLINK-5546,1 55632U 23021E   23090.75001157 -.01166076  00000-0 -36481-1 0  9991,2 55632  70.0020  33.3416 0003506 267.0352 128.5112 15.35933953  7105,6836.285,93.754,460.547,455.753,0.0
55632.0,STARLINK-5546,PAYLOAD,2023-04-01 06:00:00,15.34643615,0.0003402,70.0022,32.0072,273.4685,4.7949,-0.037941,-0.01163734,0.0,0 STARLINK-5546,1 55632U 23021E   23091.25001157 -.01163734  00000-0 -37941-1 0  9997,2 55632  70.0022  32.0072 0003402 273.4685   4.7949 15.34643615  7178,6840.116,93.833,464.308,459.654,0.0
55632.0,STARLINK-5546,PAYLOAD,2023-04-01 14:00:01,15.33768452,0.000335,70.0023,31.1189,269.3932,49.4058,-0.03872,-0.01155703,0.0,0 STARLINK-5546,1 55632U 23021E   23091.58334491 -.01155703  00000-0 -38720-1 0  9996,2 55632  70.0023  31.1189 0003350 269.3932  49.4058 15.33768452  1301,6842.718,93.886,466.875,462.291,0.0
55632.0,STARLINK-5546,PAYLOAD,2023-04-01 16:00:00,15.33539846,0.0003431,70.0023,30.8971,270.4781,148.291,-0.037647,-0.0111894,0.0,0 STARLINK-5546,1 55632U 23021E   23091.66667824 -.01118940  00000-0 -37647-1 0  9993,2 55632  70.0023  30.8971 0003431 270.4781 148.2910 15.33539846  7248,6843.398,93.9,467.611,462.915,0.0
55632.0,STARLINK-5546,PAYLOAD,2023-04-01 22:00:00,15.32980996,0.0003463,70.0026,30.2322,269.3541,88.9127,-0.043856,-0.01283556,0.0,0 STARLINK-5546,1 55632U 23021E   23091.91667824 -.01283556  00000-0 -43856-1 0  9996,2 55632  70.0026  30.2322 0003463 269.3541  88.9127 15.32980996  1307,6845.061,93.935,469.297,464.556,0.0
55632.0,STARLINK-5546,PAYLOAD,2023-04-02 08:00:01,15.31890687,0.0003229,70.0022,29.125,277.4726,218.7142,-0.043946,-0.01245945,0.0,0 STARLINK-5546,1 55632U 23021E   23092.33334491 -.01245945  00000-0 -43946-1 0  9994,2 55632  70.0022  29.1250 0003229 277.4726 218.7142 15.31890687  7341,6848.309,94.001,472.385,467.962,0.0
55632.0,STARLINK-5546,PAYLOAD,2023-04-02 14:00:01,15.31183497,0.0003346,70.0026,28.4616,271.5733,162.6171,-0.041278,-0.01137363,0.0,0 STARLINK-5546,1 55632U 23021E   23092.58334491 -.01137363  00000-0 -41278-1 0  9991,2 55632  70.0026  28.4616 0003346 271.5733 162.6171 15.31183497  1309,6850.417,94.045,474.574,469.99,0.0
55632.0,STARLINK-5546,PAYLOAD,2023-04-02 22:00:00,15.30399437,0.0003254,70.0029,27.5782,271.2011,199.3684,-0.047321,-0.01277733,0.0,0 STARLINK-5546,1 55632U 23021E   23092.91667824 -.01277733  00000-0 -47321-1 0  9998,2 55632  70.0029  27.5782 0003254 271.2011 199.3684 15.30399437  1308,6852.757,94.093,476.852,472.392,0.0
55632.0,STARLINK-5546,PAYLOAD,2023-04-03 14:00:01,15.28605397,0.0003148,70.0028,25.8144,269.928,270.3814,-0.044423,-0.01130538,0.0,0 STARLINK-5546,1 55632U 23021E   23093.58334491 -.01130538  00000-0 -44423-1 0  9994,2 55632  70.0028  25.8144 0003148 269.9280 270.3814 15.28605397  7532,6858.117,94.204,482.141,477.823,0.0
55632.0,STARLINK-5546,PAYLOAD,2023-04-03 22:00:00,15.27814483,0.0003124,70.0033,24.9345,267.8297,305.7725,-0.050614,-0.01263139,0.0,0 STARLINK-5546,1 55632U 23021E   23093.91667824 -.01263139  00000-0 -50614-1 0  9993,2 55632  70.0033  24.9345 0003124 267.8297 305.7725 15.27814483  7586,6860.484,94.252,484.492,480.206,0.0
55632.0,STARLINK-5546,PAYLOAD,2023-04-04 14:00:01,15.26027283,0.0003231,70.0032,23.1778,266.3997,10.7599,-0.047882,-0.01126722,0.0,0 STARLINK-5546,1 55632U 23021E   23094.58334491 -.01126722  00000-0 -47882-1 0  9997,2 55632  70.0032  23.1778 0003231 266.3997  10.7599 15.26027283  7682,6865.839,94.363,489.923,485.486,0.0
55632.0,STARLINK-5546,PAYLOAD,2023-04-04 22:00:00,15.25232663,0.0003309,70.0036,22.3013,265.9481,41.4162,-0.054345,-0.01254771,0.0,0 STARLINK-5546,1 55632U 23021E   23094.91667824 -.01254771  00000-0 -54345-1 0  9991,2 55632  70.0036  22.3013 0003309 265.9481  41.4162 15.25232663  7741,6868.224,94.412,492.362,487.816,0.0
55632.0,STARLINK-5546,PAYLOAD,2023-04-05 14:00:01,15.2344681,0.000332,70.0034,20.5516,266.4348,98.3056,-0.051396,-0.01119821,0.0,0 STARLINK-5546,1 55632U 23021E   23095.58334491 -.01119821  00000-0 -51396-1 0  9995,2 55632  70.0034  20.5516 0003320 266.4348  98.3056 15.23446810  1306,6873.59,94.522,497.737,493.173,0.0
55632.0,STARLINK-5546,PAYLOAD,2023-04-05 16:00:00,15.23254974,0.0003197,70.0034,20.3334,267.7457,193.8631,-0.05301,-0.01161182,0.0,0 STARLINK-5546,1 55632U 23021E   23095.66667824 -.01161182  00000-0 -53010-1 0  9995,2 55632  70.0034  20.3334 0003197 267.7457 193.8631 15.23254974  7853,6874.167,94.534,498.23,493.835,0.0
55632.0,STARLINK-5546,PAYLOAD,2023-04-05 22:00:00,15.22651219,0.0003321,70.0038,19.6786,267.5709,124.2855,-0.058387,-0.012485,0.0,0 STARLINK-5546,1 55632U 23021E   23095.91667824 -.01248500  00000-0 -58387-1 0  9995,2 55632  70.0038  19.6786 0003321 267.5709 124.2855 15.22651219  1308,6875.984,94.572,500.133,495.566,0.0
55632.0,STARLINK-5546,PAYLOAD,2023-04-06 10:00:00,15.21363084,0.0003133,70.0033,18.3711,267.9813,342.6435,-0.060839,-0.01251949,0.0,0 STARLINK-5546,1 55632U 23021E   23096.41667824 -.01251949  00000-0 -60839-1 0  9997,2 55632  70.0033  18.3711 0003133 267.9813 342.6435 15.21363084  7965,6879.865,94.652,503.886,499.575,0.0
55632.0,STARLINK-5546,PAYLOAD,2023-04-06 14:00:01,15.20869386,0.0003215,70.0035,17.9357,268.4512,174.6619,-0.055285,-0.01130982,0.0,0 STARLINK-5546,1 55632U 23021E   23096.58335648 -.01130982  00000-0 -55285-1 0  9993,2 55632  70.0035  17.9357 0003215 268.4512 174.6619 15.20869386  1305,6881.354,94.683,505.431,501.007,0.0
55632.0,STARLINK-5546,PAYLOAD,2023-04-06 22:00:00,15.2006976,0.00032,70.0038,17.0662,271.5619,195.516,-0.062607,-0.01241312,0.0,0 STARLINK-5546,1 55632U 23021E   23096.91667824 -.01241312  00000-0 -62607-1 0  9990,2 55632  70.0038  17.0662 0003200 271.5619 195.5160 15.20069760  8044,6883.767,94.732,507.835,503.429,0.0
55632.0,STARLINK-5546,PAYLOAD,2023-04-07 14:00:01,15.18295749,0.0003087,70.0034,15.3303,267.5813,244.5058,-0.059722,-0.01133265,0.0,0 STARLINK-5546,1 55632U 23021E   23097.58334491 -.01133265  00000-0 -59722-1 0  9996,2 55632  70.0034  15.3303 0003087 267.5813 244.5058 15.18295749  8144,6889.128,94.843,513.12,508.866,0.0
55632.0,STARLINK-5546,PAYLOAD,2023-04-07 22:00:00,15.1748692,0.0003096,70.0036,14.464,270.3079,262.722,-0.066891,-0.01231321,0.0,0 STARLINK-5546,1 55632U 23021E   23097.91667824 -.01231321  00000-0 -66891-1 0  9999,2 55632  70.0036  14.4640 0003096 270.3079 262.7220 15.17486920  8196,6891.576,94.894,515.574,511.307,0.0
55632.0,STARLINK-5546,PAYLOAD,2023-04-08 14:00:01,15.15718614,0.0003076,70.0032,12.735,268.4784,303.3784,-0.064061,-0.01129211,0.0,0 STARLINK-5546,1 55632U 23021E   23098.58334491 -.01129211  00000-0 -64061-1 0  9995,2 55632  70.0032  12.7350 0003076 268.4784 303.3784 15.15718614  1309,6896.935,95.004,520.921,516.678,0.0
